[
  [
    {
      "address" : "東京都渋谷区道玄坂1-1-1",
      "imageName" : "G01",
      "latitude" : 35.658034000000001,
      "longitude" : 139.70163600000001,
      "postalCode" : "〒150-0043",
      "prefectureCode" : 13,
      "stationName" : "渋谷",
      "transfer" : "半蔵門線・副都心線・東急田園都市線・東急東横線・京王井の頭線・JR線・銀座線"
    },
    {
      "address" : "東京都港区北青山3-6-12",
      "imageName" : "G02",
      "latitude" : 35.665250999999998,
      "longitude" : 139.71209200000001,
      "postalCode" : "〒107-0061",
      "prefectureCode" : 13,
      "stationName" : "表参道",
      "transfer" : "千代田線・半蔵門線・銀座線"
    },
    {
      "address" : "東京都港区北青山2-7-16",
      "imageName" : "G03",
      "latitude" : 35.670399000000003,
      "longitude" : 139.717826,
      "postalCode" : "〒107-0061",
      "prefectureCode" : 13,
      "stationName" : "外苑前",
      "transfer" : "銀座線"
    },
    {
      "address" : "東京都港区南青山1-1-19",
      "imageName" : "G04",
      "latitude" : 35.672896999999999,
      "longitude" : 139.72377399999999,
      "postalCode" : "〒107-0062",
      "prefectureCode" : 13,
      "stationName" : "青山一丁目",
      "transfer" : "半蔵門線・都営大江戸線・銀座線"
    },
    {
      "address" : "東京都港区赤坂3-1-6",
      "imageName" : "G05",
      "latitude" : 35.676794999999998,
      "longitude" : 139.737269,
      "postalCode" : "〒107-0052",
      "prefectureCode" : 13,
      "stationName" : "赤坂見附",
      "transfer" : "丸ノ内線・有楽町線・半蔵門線・銀座線"
    },
    {
      "address" : "東京都千代田区永田町2-11-1",
      "imageName" : "G06",
      "latitude" : 35.673830000000002,
      "longitude" : 139.74174099999999,
      "postalCode" : "〒100-0014",
      "prefectureCode" : 13,
      "stationName" : "溜池山王",
      "transfer" : "南北線・千代田線・銀座線"
    },
    {
      "address" : "東京都港区虎ノ門1-1-21先",
      "imageName" : "G07",
      "latitude" : 35.670129000000003,
      "longitude" : 139.75007299999999,
      "postalCode" : "〒105-0001",
      "prefectureCode" : 13,
      "stationName" : "虎ノ門",
      "transfer" : "銀座線"
    },
    {
      "address" : "東京都港区新橋2-17-5",
      "imageName" : "G08",
      "latitude" : 35.666193,
      "longitude" : 139.758332,
      "postalCode" : "〒105-0004",
      "prefectureCode" : 13,
      "stationName" : "新橋",
      "transfer" : "都営浅草線・JR線・ゆりかもめ・銀座線"
    },
    {
      "address" : "東京都中央区銀座4-1-2",
      "imageName" : "G09",
      "latitude" : 35.671405,
      "longitude" : 139.765356,
      "postalCode" : "〒104-0061",
      "prefectureCode" : 13,
      "stationName" : "銀座",
      "transfer" : "丸ノ内線・日比谷線・銀座線"
    },
    {
      "address" : "東京都中央区京橋2-2-10",
      "imageName" : "G10",
      "latitude" : 35.676679,
      "longitude" : 139.77004400000001,
      "postalCode" : "〒104-0031",
      "prefectureCode" : 13,
      "stationName" : "京橋",
      "transfer" : "銀座線"
    },
    {
      "address" : "東京都中央区日本橋1-3-11先",
      "imageName" : "G11",
      "latitude" : 35.682099999999998,
      "longitude" : 139.774686,
      "postalCode" : "〒103-0027",
      "prefectureCode" : 13,
      "stationName" : "日本橋",
      "transfer" : "東西線・都営浅草線・銀座線"
    },
    {
      "address" : "東京都中央区日本橋室町2-2-1",
      "imageName" : "G12",
      "latitude" : 35.687156000000002,
      "longitude" : 139.773571,
      "postalCode" : "〒103-0022",
      "prefectureCode" : 13,
      "stationName" : "三越前",
      "transfer" : "半蔵門線・JR総武快速線・銀座線"
    },
    {
      "address" : "東京都千代田区神田須田町1-16",
      "imageName" : "G13",
      "latitude" : 35.692140999999999,
      "longitude" : 139.77122499999999,
      "postalCode" : "〒101-0041",
      "prefectureCode" : 13,
      "stationName" : "神田",
      "transfer" : "JR線・銀座線"
    },
    {
      "address" : "東京都千代田区外神田4-7-3",
      "imageName" : "G14",
      "latitude" : 35.702542999999999,
      "longitude" : 139.77170899999999,
      "postalCode" : "〒101-0021",
      "prefectureCode" : 13,
      "stationName" : "末広町",
      "transfer" : "銀座線"
    },
    {
      "address" : "東京都台東区上野3-29-3",
      "imageName" : "G15",
      "latitude" : 35.707892000000001,
      "longitude" : 139.77308600000001,
      "postalCode" : "〒110-0005",
      "prefectureCode" : 13,
      "stationName" : "上野広小路",
      "transfer" : "都営大江戸線・銀座線"
    },
    {
      "address" : "東京都台東区東上野3-19-6",
      "imageName" : "G16",
      "latitude" : 35.712364000000001,
      "longitude" : 139.77618799999999,
      "postalCode" : "〒110-0015",
      "prefectureCode" : 13,
      "stationName" : "上野",
      "transfer" : "日比谷線・JR線・京成線"
    },
    {
      "address" : "東京都台東区東上野3-33-11",
      "imageName" : "G17",
      "latitude" : 35.711374999999997,
      "longitude" : 139.782208,
      "postalCode" : "〒110-0015",
      "prefectureCode" : 13,
      "stationName" : "稲荷町",
      "transfer" : "銀座線"
    },
    {
      "address" : "東京都台東区西浅草1-1-18",
      "imageName" : "G18",
      "latitude" : 35.709805000000003,
      "longitude" : 139.79075599999999,
      "postalCode" : "〒111-0035",
      "prefectureCode" : 13,
      "stationName" : "田原町",
      "transfer" : "銀座線"
    },
    {
      "address" : "東京都台東区浅草1-1-3",
      "imageName" : "G19",
      "latitude" : 35.710521999999997,
      "longitude" : 139.797864,
      "postalCode" : "〒111-0032",
      "prefectureCode" : 13,
      "stationName" : "浅草",
      "transfer" : "都営浅草線・東武スカイツリーライン・銀座線"
    }
  ],
  [
    {
      "address" : "東京都杉並区荻窪5-31-7",
      "imageName" : "M01",
      "latitude" : 35.704498000000001,
      "longitude" : 139.619058,
      "postalCode" : "〒167-0051",
      "prefectureCode" : 13,
      "stationName" : "荻窪",
      "transfer" : "JR線・丸ノ内線"
    },
    {
      "address" : "東京都杉並区阿佐谷南1-15-7",
      "imageName" : "M02",
      "latitude" : 35.699455,
      "longitude" : 139.63555099999999,
      "postalCode" : "〒166-0004",
      "prefectureCode" : 13,
      "stationName" : "南阿佐ケ谷",
      "transfer" : "丸ノ内線"
    },
    {
      "address" : "東京都杉並区高円寺南2-20-1",
      "imageName" : "M03",
      "latitude" : 35.697819000000003,
      "longitude" : 139.64827199999999,
      "postalCode" : "〒166-0003",
      "prefectureCode" : 13,
      "stationName" : "新高円寺",
      "transfer" : "丸ノ内線"
    },
    {
      "address" : "東京都杉並区和田3-55-42",
      "imageName" : "M04",
      "latitude" : 35.697929000000002,
      "longitude" : 139.65827400000001,
      "postalCode" : "〒166-0012",
      "prefectureCode" : 13,
      "stationName" : "東高円寺",
      "transfer" : "丸ノ内線"
    },
    {
      "address" : "東京都中野区中央4-2-15",
      "imageName" : "M05",
      "latitude" : 35.697654999999997,
      "longitude" : 139.66982100000001,
      "postalCode" : "〒164-0011",
      "prefectureCode" : 13,
      "stationName" : "新中野",
      "transfer" : "丸ノ内線"
    },
    {
      "address" : "東京都中野区本町2-48-2",
      "imageName" : "M06",
      "latitude" : 35.697068999999999,
      "longitude" : 139.68216100000001,
      "postalCode" : "〒164-0012",
      "prefectureCode" : 13,
      "stationName" : "中野坂上",
      "transfer" : "方南町方面・都営大江戸線・丸ノ内線"
    },
    {
      "address" : "東京都新宿区西新宿6-7-51",
      "imageName" : "M07",
      "latitude" : 35.694144000000001,
      "longitude" : 139.69280900000001,
      "postalCode" : "〒160-0023",
      "prefectureCode" : 13,
      "stationName" : "西新宿",
      "transfer" : "丸ノ内線"
    },
    {
      "address" : "東京都新宿区西新宿1丁目西口地下街1号",
      "imageName" : "M08",
      "latitude" : 35.689407000000003,
      "longitude" : 139.70030600000001,
      "postalCode" : "〒160-0023",
      "prefectureCode" : 13,
      "stationName" : "新宿",
      "transfer" : "都営大江戸線・JR線・京王線・小田急線・西武新宿線・丸ノ内線"
    },
    {
      "address" : "東京都新宿区新宿3-14-1",
      "imageName" : "M09",
      "latitude" : 35.690798000000001,
      "longitude" : 139.706354,
      "postalCode" : "〒160-0022",
      "prefectureCode" : 13,
      "stationName" : "新宿三丁目",
      "transfer" : "副都心線・都営新宿線・丸ノ内線"
    },
    {
      "address" : "東京都新宿区新宿1-7-2",
      "imageName" : "M10",
      "latitude" : 35.688569999999999,
      "longitude" : 139.71085400000001,
      "postalCode" : "〒160-0022",
      "prefectureCode" : 13,
      "stationName" : "新宿御苑前",
      "transfer" : "丸ノ内線"
    },
    {
      "address" : "東京都新宿区四谷3-8",
      "imageName" : "M11",
      "latitude" : 35.687932000000004,
      "longitude" : 139.720631,
      "postalCode" : "〒160-0004",
      "prefectureCode" : 13,
      "stationName" : "四谷三丁目",
      "transfer" : "丸ノ内線"
    },
    {
      "address" : "東京都新宿区四谷1-1",
      "imageName" : "M12",
      "latitude" : 35.686152999999997,
      "longitude" : 139.73021800000001,
      "postalCode" : "〒160-0004",
      "prefectureCode" : 13,
      "stationName" : "四ツ谷",
      "transfer" : "南北線・JR線・丸ノ内線"
    },
    {
      "address" : "東京都港区赤坂3-1-6",
      "imageName" : "M13",
      "latitude" : 35.676794999999998,
      "longitude" : 139.737269,
      "postalCode" : "〒107-0052",
      "prefectureCode" : 13,
      "stationName" : "赤坂見附",
      "transfer" : "銀座線・有楽町線・半蔵門線・丸ノ内線"
    },
    {
      "address" : "東京都千代田区永田町1-7-1",
      "imageName" : "M14",
      "latitude" : 35.673766999999998,
      "longitude" : 139.743268,
      "postalCode" : "〒100-0014",
      "prefectureCode" : 13,
      "stationName" : "国会議事堂前",
      "transfer" : "千代田線・丸ノ内線"
    },
    {
      "address" : "東京都千代田区霞が関2-1-2",
      "imageName" : "M15",
      "latitude" : 35.672460999999998,
      "longitude" : 139.75168400000001,
      "postalCode" : "〒100-0013",
      "prefectureCode" : 13,
      "stationName" : "霞ケ関",
      "transfer" : "日比谷線・千代田線・丸ノ内線"
    },
    {
      "address" : "東京都中央区銀座4-1-2",
      "imageName" : "M16",
      "latitude" : 35.671405,
      "longitude" : 139.765356,
      "postalCode" : "〒104-0061",
      "prefectureCode" : 13,
      "stationName" : "銀座",
      "transfer" : "銀座線・日比谷線・丸ノ内線"
    },
    {
      "address" : "東京都千代田区丸の内1-6-5",
      "imageName" : "M17",
      "latitude" : 35.681167000000002,
      "longitude" : 139.76705200000001,
      "postalCode" : "〒100-0005",
      "prefectureCode" : 13,
      "stationName" : "東京",
      "transfer" : "JR線・丸ノ内線"
    },
    {
      "address" : "東京都千代田区大手町1-6-1",
      "imageName" : "M18",
      "latitude" : 35.683469000000002,
      "longitude" : 139.762709,
      "postalCode" : "〒100-0004",
      "prefectureCode" : 13,
      "stationName" : "大手町",
      "transfer" : "東西線・千代田線・半蔵門線・都営三田線・丸ノ内線"
    },
    {
      "address" : "東京都千代田区神田淡路町1-2",
      "imageName" : "M19",
      "latitude" : 35.694960000000002,
      "longitude" : 139.76746,
      "postalCode" : "〒101-0063",
      "prefectureCode" : 13,
      "stationName" : "淡路町",
      "transfer" : "千代田線・都営新宿線・丸ノ内線"
    },
    {
      "address" : "東京都文京区湯島1-5-8",
      "imageName" : "M20",
      "latitude" : 35.700612,
      "longitude" : 139.76420400000001,
      "postalCode" : "〒113-0034",
      "prefectureCode" : 13,
      "stationName" : "御茶ノ水",
      "transfer" : "JR線・丸ノ内線"
    },
    {
      "address" : "東京都文京区本郷2-39-1",
      "imageName" : "M21",
      "latitude" : 35.706721999999999,
      "longitude" : 139.75983400000001,
      "postalCode" : "〒113-0033",
      "prefectureCode" : 13,
      "stationName" : "本郷三丁目",
      "transfer" : "都営大江戸線・丸ノ内線線"
    },
    {
      "address" : "東京都文京区春日1-2-3",
      "imageName" : "M22",
      "latitude" : 35.708486000000001,
      "longitude" : 139.751822,
      "postalCode" : "〒112-0003",
      "prefectureCode" : 13,
      "stationName" : "後楽園",
      "transfer" : "南北線・都営三田線・都営大江戸線・丸ノ内線"
    },
    {
      "address" : "東京都文京区小日向4-6-15",
      "imageName" : "M23",
      "latitude" : 35.717373000000002,
      "longitude" : 139.73678000000001,
      "postalCode" : "〒112-0006",
      "prefectureCode" : 13,
      "stationName" : "茗荷谷",
      "transfer" : "丸ノ内線"
    },
    {
      "address" : "東京都文京区大塚4-51-5",
      "imageName" : "M24",
      "latitude" : 35.726075000000002,
      "longitude" : 139.72982999999999,
      "postalCode" : "〒112-0012",
      "prefectureCode" : 13,
      "stationName" : "新大塚",
      "transfer" : "丸ノ内線"
    },
    {
      "address" : "東京都豊島区南池袋1-28-1",
      "imageName" : "M25",
      "latitude" : 35.729503000000001,
      "longitude" : 139.71090000000001,
      "postalCode" : "〒171-0022",
      "prefectureCode" : 13,
      "stationName" : "池袋",
      "transfer" : "有楽町線・副都心線・JR線・東武東上線・西武池袋線・丸ノ内線"
    },
    {
      "address" : "東京都杉並区堀ノ内1-1-1",
      "imageName" : "Mb03",
      "latitude" : 35.683486000000002,
      "longitude" : 139.65791400000001,
      "postalCode" : "〒166-0013",
      "prefectureCode" : 13,
      "stationName" : "方南町",
      "transfer" : "丸ノ内線(中野坂上方面)"
    },
    {
      "address" : "東京都中野区弥生町5-24-4",
      "imageName" : "Mb04",
      "latitude" : 35.690624999999997,
      "longitude" : 139.667024,
      "postalCode" : "〒164-0013",
      "prefectureCode" : 13,
      "stationName" : "中野富士見町",
      "transfer" : "丸ノ内線(中野坂上・方南町方面)"
    },
    {
      "address" : "東京都中野区弥生町2-26-8",
      "imageName" : "Mb05",
      "latitude" : 35.692501,
      "longitude" : 139.674286,
      "postalCode" : "〒164-0013",
      "prefectureCode" : 13,
      "stationName" : "中野新橋",
      "transfer" : "丸ノ内線(中野坂上・方南町方面)"
    }
  ],
  [
    {
      "address" : "東京都目黒区上目黒3-4-1",
      "imageName" : "H01",
      "latitude" : 35.644288000000003,
      "longitude" : 139.699096,
      "postalCode" : "〒153-0051",
      "prefectureCode" : 13,
      "stationName" : "中目黒",
      "transfer" : "東急東横線・日比谷線"
    },
    {
      "address" : "東京都渋谷区恵比寿南1-5-5",
      "imageName" : "H02",
      "latitude" : 35.647156000000003,
      "longitude" : 139.70973900000001,
      "postalCode" : "〒150-0022",
      "prefectureCode" : 13,
      "stationName" : "恵比寿",
      "transfer" : "JR線・日比谷線"
    },
    {
      "address" : "東京都港区南麻布5-1-25",
      "imageName" : "H03",
      "latitude" : 35.651519,
      "longitude" : 139.72216,
      "postalCode" : "〒106-0047",
      "prefectureCode" : 13,
      "stationName" : "広尾",
      "transfer" : "日比谷線"
    },
    {
      "address" : "東京都港区六本木6-1-25",
      "imageName" : "H04",
      "latitude" : 35.662725000000002,
      "longitude" : 139.73121699999999,
      "postalCode" : "〒106-0032",
      "prefectureCode" : 13,
      "stationName" : "六本木",
      "transfer" : "都営大江戸線・日比谷線"
    },
    {
      "address" : "東京都港区虎ノ門5-12-11",
      "imageName" : "H05",
      "latitude" : 35.66263,
      "longitude" : 139.744741,
      "postalCode" : "〒105-0001 ",
      "prefectureCode" : 13,
      "stationName" : "神谷町",
      "transfer" : "日比谷線"
    },
    {
      "address" : "東京都港区虎ノ門１丁目",
      "imageName" : "H06",
      "latitude" : 35.667405000000002,
      "longitude" : 139.74777499999999,
      "postalCode" : "〒105-0001",
      "prefectureCode" : 13,
      "stationName" : "虎ノ門ヒルズ",
      "transfer" : "銀座線"
    },
    {
      "address" : "東京都千代田区霞が関2-1-2",
      "imageName" : "H07",
      "latitude" : 35.672460999999998,
      "longitude" : 139.75168400000001,
      "postalCode" : "〒100-0013",
      "prefectureCode" : 13,
      "stationName" : "霞ケ関",
      "transfer" : "丸ノ内線・千代田線・日比谷線"
    },
    {
      "address" : "東京都千代田区有楽町1-5-1先",
      "imageName" : "H08",
      "latitude" : 35.674889999999998,
      "longitude" : 139.75960499999999,
      "postalCode" : "〒100-0006",
      "prefectureCode" : 13,
      "stationName" : "日比谷",
      "transfer" : "千代田線・有楽町線・都営三田線・日比谷線"
    },
    {
      "address" : "東京都中央区銀座4-1-2",
      "imageName" : "H09",
      "latitude" : 35.671405,
      "longitude" : 139.765356,
      "postalCode" : "〒104-0061",
      "prefectureCode" : 13,
      "stationName" : "銀座",
      "transfer" : "銀座線・丸ノ内線・日比谷線"
    },
    {
      "address" : "東京都中央区銀座4-12-15先",
      "imageName" : "H10",
      "latitude" : 35.669699999999999,
      "longitude" : 139.76714000000001,
      "postalCode" : "〒104-0061",
      "prefectureCode" : 13,
      "stationName" : "東銀座",
      "transfer" : "都営浅草線・日比谷線"
    },
    {
      "address" : "東京都中央区築地3-15-1",
      "imageName" : "H11",
      "latitude" : 35.667879999999997,
      "longitude" : 139.772516,
      "postalCode" : "〒104-0045",
      "prefectureCode" : 13,
      "stationName" : "築地",
      "transfer" : "日比谷線"
    },
    {
      "address" : "東京都中央区八丁堀2-22-5",
      "imageName" : "H12",
      "latitude" : 35.674596999999999,
      "longitude" : 139.777807,
      "postalCode" : "〒104-0032 ",
      "prefectureCode" : 13,
      "stationName" : "八丁堀",
      "transfer" : "JR京葉線・日比谷線"
    },
    {
      "address" : "東京都中央区日本橋茅場町1-4-6先",
      "imageName" : "H13",
      "latitude" : 35.679046,
      "longitude" : 139.77962600000001,
      "postalCode" : "〒103-0025",
      "prefectureCode" : 13,
      "stationName" : "茅場町",
      "transfer" : "東西線・日比谷線"
    },
    {
      "address" : "東京都中央区日本橋人形町2-6-5",
      "imageName" : "H14",
      "latitude" : 35.686239,
      "longitude" : 139.78234800000001,
      "postalCode" : "〒103-0013",
      "prefectureCode" : 13,
      "stationName" : "人形町",
      "transfer" : "都営浅草線・日比谷線"
    },
    {
      "address" : "東京都中央区日本橋小伝馬町11-1",
      "imageName" : "H15",
      "latitude" : 35.690731999999997,
      "longitude" : 139.778492,
      "postalCode" : "〒103-0001",
      "prefectureCode" : 13,
      "stationName" : "小伝馬町",
      "transfer" : "日比谷線"
    },
    {
      "address" : "東京都千代田区神田佐久間町1-21",
      "imageName" : "H16",
      "latitude" : 35.698352999999997,
      "longitude" : 139.77311399999999,
      "postalCode" : "〒101-0025",
      "prefectureCode" : 13,
      "stationName" : "秋葉原",
      "transfer" : "都営新宿線・JR線・つくばエクスプレス線・日比谷線"
    },
    {
      "address" : "東京都台東区上野5-24-12",
      "imageName" : "H17",
      "latitude" : 35.706628000000002,
      "longitude" : 139.77620300000001,
      "postalCode" : "〒110-0015",
      "prefectureCode" : 13,
      "stationName" : "仲御徒町",
      "transfer" : "都営大江戸線・日比谷線"
    },
    {
      "address" : "東京都台東区東上野3-19-6",
      "imageName" : "H18",
      "latitude" : 35.712364000000001,
      "longitude" : 139.77618799999999,
      "postalCode" : "〒110-0015",
      "prefectureCode" : 13,
      "stationName" : "上野",
      "transfer" : "銀座線・JR線・京成線・日比谷線"
    },
    {
      "address" : "東京都台東区下谷2-15-1",
      "imageName" : "H19",
      "latitude" : 35.720540999999997,
      "longitude" : 139.784457,
      "postalCode" : "〒110-0004",
      "prefectureCode" : 13,
      "stationName" : "入谷",
      "transfer" : "日比谷線"
    },
    {
      "address" : "東京都台東区根岸5-19-6",
      "imageName" : "H20",
      "latitude" : 35.729374,
      "longitude" : 139.791234,
      "postalCode" : "〒110-0003",
      "prefectureCode" : 13,
      "stationName" : "三ノ輪",
      "transfer" : "日比谷線"
    },
    {
      "address" : "東京都荒川区南千住4-3-1",
      "imageName" : "H21",
      "latitude" : 35.733319000000002,
      "longitude" : 139.79905600000001,
      "postalCode" : "〒116-0003",
      "prefectureCode" : 13,
      "stationName" : "南千住",
      "transfer" : "JR常磐線・つくばエクスプレス線・日比谷線"
    },
    {
      "address" : "東京都足立区千住2-63",
      "imageName" : "H22",
      "latitude" : 35.749720000000003,
      "longitude" : 139.80470199999999,
      "postalCode" : "〒120-0034",
      "prefectureCode" : 13,
      "stationName" : "北千住",
      "transfer" : "千代田線・JR常磐線・東武スカイツリーライン・つくばエクスプレス線・日比谷線"
    }
  ],
  [
    {
      "address" : "東京都中野区中野5-31-1",
      "imageName" : "T01",
      "latitude" : 35.705421000000001,
      "longitude" : 139.665797,
      "postalCode" : "〒164-0001",
      "prefectureCode" : 13,
      "stationName" : "中野",
      "transfer" : "JR線・東西線"
    },
    {
      "address" : "東京都新宿区上落合2-13-7",
      "imageName" : "T02",
      "latitude" : 35.710622999999998,
      "longitude" : 139.68613300000001,
      "postalCode" : "〒161-0034",
      "prefectureCode" : 13,
      "stationName" : "落合",
      "transfer" : "東西線"
    },
    {
      "address" : "東京都新宿区高田馬場1-35-2",
      "imageName" : "T03",
      "latitude" : 35.713447000000002,
      "longitude" : 139.704138,
      "postalCode" : "〒169-0075",
      "prefectureCode" : 13,
      "stationName" : "高田馬場",
      "transfer" : "JR山手線・西武新宿線・東西線"
    },
    {
      "address" : "東京都新宿区早稲田南町12",
      "imageName" : "T04",
      "latitude" : 35.705652000000001,
      "longitude" : 139.72215800000001,
      "postalCode" : "〒162-0043",
      "prefectureCode" : 13,
      "stationName" : "早稲田",
      "transfer" : "東西線"
    },
    {
      "address" : "東京都新宿区矢来町112",
      "imageName" : "T05",
      "latitude" : 35.703819000000003,
      "longitude" : 139.73451800000001,
      "postalCode" : "〒162-0805",
      "prefectureCode" : 13,
      "stationName" : "神楽坂",
      "transfer" : "東西線"
    },
    {
      "address" : "東京都千代田区飯田橋4-10-3",
      "imageName" : "T06",
      "latitude" : 35.701124999999998,
      "longitude" : 139.7431,
      "postalCode" : "〒102-0072",
      "prefectureCode" : 13,
      "stationName" : "飯田橋",
      "transfer" : "有楽町線・南北線・都営大江戸線・JR線・東西線"
    },
    {
      "address" : "東京都千代田区九段南1-6-1",
      "imageName" : "T07",
      "latitude" : 35.695481999999998,
      "longitude" : 139.75115400000001,
      "postalCode" : "〒102-0074",
      "prefectureCode" : 13,
      "stationName" : "九段下",
      "transfer" : "半蔵門線・都営新宿線・東西線"
    },
    {
      "address" : "東京都千代田区一ツ橋1-1-1",
      "imageName" : "T08",
      "latitude" : 35.690508999999999,
      "longitude" : 139.75653800000001,
      "postalCode" : "〒100-0003",
      "prefectureCode" : 13,
      "stationName" : "竹橋",
      "transfer" : "東西線"
    },
    {
      "address" : "東京都千代田区大手町2-1-1",
      "imageName" : "T09",
      "latitude" : 35.683469000000002,
      "longitude" : 139.762709,
      "postalCode" : "〒100-0004",
      "prefectureCode" : 13,
      "stationName" : "大手町",
      "transfer" : "丸ノ内線・千代田線・半蔵門線・都営三田線・JR線・東西線"
    },
    {
      "address" : "東京都中央区日本橋1-3-11先",
      "imageName" : "T10",
      "latitude" : 35.682099999999998,
      "longitude" : 139.774686,
      "postalCode" : "〒103-0027",
      "prefectureCode" : 13,
      "stationName" : "日本橋",
      "transfer" : "銀座線・都営浅草線・東西線"
    },
    {
      "address" : "東京都中央区日本橋茅場町1-4-6先",
      "imageName" : "T11",
      "latitude" : 35.679046,
      "longitude" : 139.77962600000001,
      "postalCode" : "〒103-0025",
      "prefectureCode" : 13,
      "stationName" : "茅場町",
      "transfer" : "日比谷線・東西線"
    },
    {
      "address" : "東京都江東区門前仲町1-4-8",
      "imageName" : "T12",
      "latitude" : 35.671824999999998,
      "longitude" : 139.79606899999999,
      "postalCode" : "〒135-0048",
      "prefectureCode" : 13,
      "stationName" : "門前仲町",
      "transfer" : "都営大江戸線・東西線"
    },
    {
      "address" : "東京都江東区木場5-5-1",
      "imageName" : "T13",
      "latitude" : 35.669372000000003,
      "longitude" : 139.807153,
      "postalCode" : "〒135-0042",
      "prefectureCode" : 13,
      "stationName" : "木場",
      "transfer" : "東西線"
    },
    {
      "address" : "東京都江東区東陽4-2-1",
      "imageName" : "T14",
      "latitude" : 35.669542,
      "longitude" : 139.81886600000001,
      "postalCode" : "〒135-0016",
      "prefectureCode" : 13,
      "stationName" : "東陽町",
      "transfer" : "東西線"
    },
    {
      "address" : "東京都江東区南砂3-11-85",
      "imageName" : "T15",
      "latitude" : 35.668380999999997,
      "longitude" : 139.831705,
      "postalCode" : "〒136-0076",
      "prefectureCode" : 13,
      "stationName" : "南砂町",
      "transfer" : "東西線"
    },
    {
      "address" : "東京都江戸川区西葛西6-14-1",
      "imageName" : "T16",
      "latitude" : 35.664577000000001,
      "longitude" : 139.85920300000001,
      "postalCode" : "〒134-0088",
      "prefectureCode" : 13,
      "stationName" : "西葛西",
      "transfer" : "東西線"
    },
    {
      "address" : "東京都江戸川区中葛西5-43-11",
      "imageName" : "T17",
      "latitude" : 35.663578000000001,
      "longitude" : 139.87292400000001,
      "postalCode" : "〒134-0083",
      "prefectureCode" : 13,
      "stationName" : "葛西",
      "transfer" : "東西線"
    },
    {
      "address" : "千葉県浦安市北栄1-13-1",
      "imageName" : "T18",
      "latitude" : 35.665883000000001,
      "longitude" : 139.89325600000001,
      "postalCode" : "〒279-0002",
      "prefectureCode" : 12,
      "stationName" : "浦安",
      "transfer" : "東西線"
    },
    {
      "address" : "千葉県市川市相之川4-17-1",
      "imageName" : "T19",
      "latitude" : 35.672716000000001,
      "longitude" : 139.90222700000001,
      "postalCode" : "〒272-0143",
      "prefectureCode" : 12,
      "stationName" : "南行徳",
      "transfer" : "東西線"
    },
    {
      "address" : "千葉県市川市行徳駅前2-4-1",
      "imageName" : "T20",
      "latitude" : 35.682603999999998,
      "longitude" : 139.914142,
      "postalCode" : "〒272-0133",
      "prefectureCode" : 12,
      "stationName" : "行徳",
      "transfer" : "東西線"
    },
    {
      "address" : "千葉県市川市富浜1-2-10",
      "imageName" : "T21",
      "latitude" : 35.691020000000002,
      "longitude" : 139.924363,
      "postalCode" : "〒272-0115",
      "prefectureCode" : 12,
      "stationName" : "妙典",
      "transfer" : "東西線"
    },
    {
      "address" : "千葉県船橋市本中山7-7-1",
      "imageName" : "T22",
      "latitude" : 35.703166000000003,
      "longitude" : 139.94160299999999,
      "postalCode" : "〒273-0035",
      "prefectureCode" : 12,
      "stationName" : "原木中山",
      "transfer" : "東西線"
    },
    {
      "address" : "千葉県船橋市西船4-27-7",
      "imageName" : "T23",
      "latitude" : 35.707469000000003,
      "longitude" : 139.958967,
      "postalCode" : "〒273-0031",
      "prefectureCode" : 12,
      "stationName" : "西船橋",
      "transfer" : "東葉高速線・JR線・東西線"
    }
  ],
  [
    {
      "address" : "東京都渋谷区西原3-8-5",
      "imageName" : "C01",
      "latitude" : 35.668987999999999,
      "longitude" : 139.679857,
      "postalCode" : "〒151-0066",
      "prefectureCode" : 13,
      "stationName" : "代々木上原",
      "transfer" : "小田急線(唐木田・新宿方面)・千代田線"
    },
    {
      "address" : "東京都渋谷区富ケ谷1-3-9",
      "imageName" : "C02",
      "latitude" : 35.6691,
      "longitude" : 139.689773,
      "postalCode" : "〒151-0063",
      "prefectureCode" : 13,
      "stationName" : "代々木公園",
      "transfer" : "千代田線"
    },
    {
      "address" : "東京都渋谷区神宮前1-18-22",
      "imageName" : "C03",
      "latitude" : 35.668486000000001,
      "longitude" : 139.705376,
      "postalCode" : "〒150-0001",
      "prefectureCode" : 13,
      "stationName" : "明治神宮前<原宿>",
      "transfer" : "副都心線・JR山手線・千代田線"
    },
    {
      "address" : "東京都港区北青山3-6-12",
      "imageName" : "C04",
      "latitude" : 35.665250999999998,
      "longitude" : 139.71209200000001,
      "postalCode" : "〒107-0061",
      "prefectureCode" : 13,
      "stationName" : "表参道",
      "transfer" : "銀座線・半蔵門線・千代田線"
    },
    {
      "address" : "東京都港区南青山1-25-8",
      "imageName" : "C05",
      "latitude" : 35.666490000000003,
      "longitude" : 139.72624200000001,
      "postalCode" : "〒107-0062",
      "prefectureCode" : 13,
      "stationName" : "乃木坂",
      "transfer" : "千代田線"
    },
    {
      "address" : "東京都港区赤坂5-4-5",
      "imageName" : "C06",
      "latitude" : 35.672212000000002,
      "longitude" : 139.73638,
      "postalCode" : "〒107-0052",
      "prefectureCode" : 13,
      "stationName" : "赤坂",
      "transfer" : "千代田線"
    },
    {
      "address" : "東京都千代田区永田町1-7-1",
      "imageName" : "C07",
      "latitude" : 35.673766999999998,
      "longitude" : 139.743268,
      "postalCode" : "〒100-0014",
      "prefectureCode" : 13,
      "stationName" : "国会議事堂前",
      "transfer" : "丸ノ内線・銀座線・南北線・千代田線"
    },
    {
      "address" : "東京都千代田区霞が関2-1-2",
      "imageName" : "C08",
      "latitude" : 35.672460999999998,
      "longitude" : 139.75168400000001,
      "postalCode" : "〒100-0013",
      "prefectureCode" : 13,
      "stationName" : "霞ケ関",
      "transfer" : "丸ノ内線・日比谷線・千代田線"
    },
    {
      "address" : "東京都千代田区有楽町1-5-1先",
      "imageName" : "C09",
      "latitude" : 35.674889999999998,
      "longitude" : 139.75960499999999,
      "postalCode" : "〒100-0006",
      "prefectureCode" : 13,
      "stationName" : "日比谷",
      "transfer" : "日比谷線・有楽町線・都営三田線・千代田線"
    },
    {
      "address" : "東京都千代田区丸の内2-3-1",
      "imageName" : "C10",
      "latitude" : 35.680627999999999,
      "longitude" : 139.76185000000001,
      "postalCode" : "〒100-0005",
      "prefectureCode" : 13,
      "stationName" : "二重橋前",
      "transfer" : "千代田線"
    },
    {
      "address" : "東京都千代田区大手町1-6-1",
      "imageName" : "C11",
      "latitude" : 35.683469000000002,
      "longitude" : 139.762709,
      "postalCode" : "〒100-0004",
      "prefectureCode" : 13,
      "stationName" : "大手町",
      "transfer" : "丸ノ内線・東西線・半蔵門線・都営三田線・千代田線"
    },
    {
      "address" : "東京都千代田区神田駿河台3丁目先",
      "imageName" : "C12",
      "latitude" : 35.696931999999997,
      "longitude" : 139.765432,
      "postalCode" : "〒101-0062",
      "prefectureCode" : 13,
      "stationName" : "新御茶ノ水",
      "transfer" : "丸ノ内線・都営新宿線・JR線・千代田線"
    },
    {
      "address" : "東京都文京区湯島3-47-10",
      "imageName" : "C13",
      "latitude" : 35.70682,
      "longitude" : 139.76998699999999,
      "postalCode" : "〒113-0034",
      "prefectureCode" : 13,
      "stationName" : "湯島",
      "transfer" : "千代田線"
    },
    {
      "address" : "東京都文京区根津1-3-5",
      "imageName" : "C14",
      "latitude" : 35.717345999999999,
      "longitude" : 139.765737,
      "postalCode" : "〒113-0031",
      "prefectureCode" : 13,
      "stationName" : "根津",
      "transfer" : "千代田線"
    },
    {
      "address" : "東京都文京区千駄木3-36-7",
      "imageName" : "C15",
      "latitude" : 35.725762000000003,
      "longitude" : 139.76334800000001,
      "postalCode" : "〒113-0022",
      "prefectureCode" : 13,
      "stationName" : "千駄木",
      "transfer" : "千代田線"
    },
    {
      "address" : "東京都荒川区西日暮里5-14-1",
      "imageName" : "C16",
      "latitude" : 35.732005999999998,
      "longitude" : 139.766886,
      "postalCode" : "〒116-0013",
      "prefectureCode" : 13,
      "stationName" : "西日暮里",
      "transfer" : "JR線・日暮里舎人ライナー・千代田線"
    },
    {
      "address" : "東京都荒川区町屋1-1-5",
      "imageName" : "C17",
      "latitude" : 35.742234000000003,
      "longitude" : 139.781386,
      "postalCode" : "〒116-0001",
      "prefectureCode" : 13,
      "stationName" : "町屋",
      "transfer" : "京成線・都電荒川線・千代田線"
    },
    {
      "address" : "東京都足立区千住2-63",
      "imageName" : "C18",
      "latitude" : 35.749720000000003,
      "longitude" : 139.80470199999999,
      "postalCode" : "〒120-0034",
      "prefectureCode" : 13,
      "stationName" : "北千住",
      "transfer" : "日比谷線・JR常磐快速線・東武スカイツリーライン・つくばエクスプレス線・千代田線"
    },
    {
      "address" : "東京都足立区綾瀬3-1-1",
      "imageName" : "C19",
      "latitude" : 35.762216000000002,
      "longitude" : 139.82494700000001,
      "postalCode" : "〒120-0005",
      "prefectureCode" : 13,
      "stationName" : "綾瀬",
      "transfer" : "北綾瀬方面・JR常磐線・千代田線"
    },
    {
      "address" : "東京都足立区谷中2-6-21",
      "imageName" : "C20",
      "latitude" : 35.776868999999998,
      "longitude" : 139.83211800000001,
      "postalCode" : "〒120-0006",
      "prefectureCode" : 13,
      "stationName" : "北綾瀬",
      "transfer" : "千代田線(綾瀬方面)"
    }
  ],
  [
    {
      "address" : "埼玉県和光市本町4-6",
      "imageName" : "Y01",
      "latitude" : 35.788404999999997,
      "longitude" : 139.612246,
      "postalCode" : "〒351-0114",
      "prefectureCode" : 11,
      "stationName" : "和光市",
      "transfer" : "副都心線・東武東上線・有楽町線"
    },
    {
      "address" : "東京都板橋区成増2-11-3",
      "imageName" : "Y02",
      "latitude" : 35.776696999999999,
      "longitude" : 139.63119,
      "postalCode" : "〒175-0094",
      "prefectureCode" : 13,
      "stationName" : "地下鉄成増",
      "transfer" : "副都心線・有楽町線"
    },
    {
      "address" : "東京都練馬区北町8-37-16",
      "imageName" : "Y03",
      "latitude" : 35.769976,
      "longitude" : 139.644023,
      "postalCode" : "〒179-0081",
      "prefectureCode" : 13,
      "stationName" : "地下鉄赤塚",
      "transfer" : "副都心線・有楽町線"
    },
    {
      "address" : "東京都練馬区早宮2-17-48",
      "imageName" : "Y04",
      "latitude" : 35.757561000000003,
      "longitude" : 139.65432799999999,
      "postalCode" : "〒179-0085",
      "prefectureCode" : 13,
      "stationName" : "平和台",
      "transfer" : "副都心線・有楽町線"
    },
    {
      "address" : "東京都練馬区氷川台3-38-18",
      "imageName" : "Y05",
      "latitude" : 35.749561999999997,
      "longitude" : 139.66546600000001,
      "postalCode" : "〒179-0084",
      "prefectureCode" : 13,
      "stationName" : "氷川台",
      "transfer" : "副都心線・有楽町線"
    },
    {
      "address" : "東京都練馬区小竹町2-16-15",
      "imageName" : "Y06",
      "latitude" : 35.743341000000001,
      "longitude" : 139.67952099999999,
      "postalCode" : "〒176-0004",
      "prefectureCode" : 13,
      "stationName" : "小竹向原",
      "transfer" : "副都心線・西武線・有楽町線"
    },
    {
      "address" : "東京都豊島区要町3-10-7",
      "imageName" : "Y07",
      "latitude" : 35.738092000000002,
      "longitude" : 139.689437,
      "postalCode" : "〒171-0043",
      "prefectureCode" : 13,
      "stationName" : "千川",
      "transfer" : "副都心線・有楽町線"
    },
    {
      "address" : "東京都豊島区要町1-1-10",
      "imageName" : "Y08",
      "latitude" : 35.733148,
      "longitude" : 139.69849199999999,
      "postalCode" : "〒171-0043",
      "prefectureCode" : 13,
      "stationName" : "要町",
      "transfer" : "副都心線・有楽町線"
    },
    {
      "address" : "東京都豊島区西池袋1-12-1",
      "imageName" : "Y09",
      "latitude" : 35.729503000000001,
      "longitude" : 139.71090000000001,
      "postalCode" : "〒171-0021",
      "prefectureCode" : 13,
      "stationName" : "池袋",
      "transfer" : "丸ノ内線・副都心線・JR線・東武東上線・西武池袋線・有楽町線"
    },
    {
      "address" : "東京都豊島区東池袋4-4-4",
      "imageName" : "Y10",
      "latitude" : 35.725900000000003,
      "longitude" : 139.71882400000001,
      "postalCode" : "〒170-0013",
      "prefectureCode" : 13,
      "stationName" : "東池袋",
      "transfer" : "有楽町線"
    },
    {
      "address" : "東京都文京区大塚5-40-8",
      "imageName" : "Y11",
      "latitude" : 35.720198000000003,
      "longitude" : 139.72681600000001,
      "postalCode" : "〒112-0012",
      "prefectureCode" : 13,
      "stationName" : "護国寺",
      "transfer" : "有楽町線"
    },
    {
      "address" : "東京都文京区関口1-19-6",
      "imageName" : "Y12",
      "latitude" : 35.709235,
      "longitude" : 139.73410100000001,
      "postalCode" : "〒112-0014",
      "prefectureCode" : 13,
      "stationName" : "江戸川橋",
      "transfer" : "有楽町線"
    },
    {
      "address" : "東京都新宿区神楽坂1-13",
      "imageName" : "Y13",
      "latitude" : 35.701124999999998,
      "longitude" : 139.7431,
      "postalCode" : "〒162-0825",
      "prefectureCode" : 13,
      "stationName" : "飯田橋",
      "transfer" : "東西線・南北線・都営大江戸線・JR線・有楽町線"
    },
    {
      "address" : "東京都新宿区市谷田町1丁目先",
      "imageName" : "Y14",
      "latitude" : 35.691628000000001,
      "longitude" : 139.73611,
      "postalCode" : "〒162-0043",
      "prefectureCode" : 13,
      "stationName" : "市ケ谷",
      "transfer" : "南北線・都営新宿線・JR線・有楽町線"
    },
    {
      "address" : "東京都千代田区麹町3-2先",
      "imageName" : "Y15",
      "latitude" : 35.684992000000001,
      "longitude" : 139.73725200000001,
      "postalCode" : "〒102-0083",
      "prefectureCode" : 13,
      "stationName" : "麹町",
      "transfer" : "有楽町線"
    },
    {
      "address" : "東京都千代田区永田町1-11-28先",
      "imageName" : "Y16",
      "latitude" : 35.677795000000003,
      "longitude" : 139.741713,
      "postalCode" : "〒100-0014",
      "prefectureCode" : 13,
      "stationName" : "永田町",
      "transfer" : "半蔵門線・南北線・銀座線・丸ノ内線・有楽町線"
    },
    {
      "address" : "東京都千代田区霞が関2-1-1",
      "imageName" : "Y17",
      "latitude" : 35.677295000000001,
      "longitude" : 139.75137899999999,
      "postalCode" : "〒100-0013",
      "prefectureCode" : 13,
      "stationName" : "桜田門",
      "transfer" : "有楽町線"
    },
    {
      "address" : "東京都千代田区有楽町1-11-1",
      "imageName" : "Y18",
      "latitude" : 35.674919000000003,
      "longitude" : 139.76282,
      "postalCode" : "〒100-0006",
      "prefectureCode" : 13,
      "stationName" : "有楽町",
      "transfer" : "日比谷線・千代田線・都営三田線・JR線・有楽町線"
    },
    {
      "address" : "東京都中央区銀座1-7-12",
      "imageName" : "Y19",
      "latitude" : 35.674393999999999,
      "longitude" : 139.76697899999999,
      "postalCode" : "〒104-0061",
      "prefectureCode" : 13,
      "stationName" : "銀座一丁目",
      "transfer" : "有楽町線"
    },
    {
      "address" : "東京都中央区築地1-1-1",
      "imageName" : "Y20",
      "latitude" : 35.670518999999999,
      "longitude" : 139.77359899999999,
      "postalCode" : "〒104-0045",
      "prefectureCode" : 13,
      "stationName" : "新富町",
      "transfer" : "有楽町線"
    },
    {
      "address" : "東京都中央区月島1-3-9先",
      "imageName" : "Y21",
      "latitude" : 35.664686000000003,
      "longitude" : 139.78443200000001,
      "postalCode" : "〒104-0052",
      "prefectureCode" : 13,
      "stationName" : "月島",
      "transfer" : "都営大江戸線・有楽町線"
    },
    {
      "address" : "東京都江東区豊洲4-1-1",
      "imageName" : "Y22",
      "latitude" : 35.653734,
      "longitude" : 139.79534899999999,
      "postalCode" : "〒135-0061",
      "prefectureCode" : 13,
      "stationName" : "豊洲",
      "transfer" : "ゆりかもめ・有楽町線"
    },
    {
      "address" : "東京都江東区辰巳1-1-44",
      "imageName" : "Y23",
      "latitude" : 35.645772000000001,
      "longitude" : 139.81034700000001,
      "postalCode" : "〒135-0053",
      "prefectureCode" : 13,
      "stationName" : "辰巳",
      "transfer" : "有楽町線"
    },
    {
      "address" : "東京都江東区新木場1-6先",
      "imageName" : "Y24",
      "latitude" : 35.645902,
      "longitude" : 139.826695,
      "postalCode" : "〒136-0082",
      "prefectureCode" : 13,
      "stationName" : "新木場",
      "transfer" : "JR線・りんかい線・有楽町線"
    }
  ],
  [
    {
      "address" : "東京都渋谷区道玄坂1-1-1",
      "imageName" : "Z01",
      "latitude" : 35.658034000000001,
      "longitude" : 139.70163600000001,
      "postalCode" : "〒150-0043",
      "prefectureCode" : 13,
      "stationName" : "渋谷",
      "transfer" : "銀座線・副都心線・東急田園都市線・東急東横線・京王井の頭線・JR線・半蔵門線"
    },
    {
      "address" : "東京都港区北青山3-6-12",
      "imageName" : "Z02",
      "latitude" : 35.665250999999998,
      "longitude" : 139.71209200000001,
      "postalCode" : "〒107-0061",
      "prefectureCode" : 13,
      "stationName" : "表参道",
      "transfer" : "銀座線・千代田線・半蔵門線"
    },
    {
      "address" : "東京都港区南青山1-1-19",
      "imageName" : "Z03",
      "latitude" : 35.672896999999999,
      "longitude" : 139.72377399999999,
      "postalCode" : "〒107-0062",
      "prefectureCode" : 13,
      "stationName" : "青山一丁目",
      "transfer" : "銀座線・都営大江戸線・半蔵門線"
    },
    {
      "address" : "東京都千代田区永田町1-11-28先",
      "imageName" : "Z04",
      "latitude" : 35.677795000000003,
      "longitude" : 139.741713,
      "postalCode" : "〒100-0014",
      "prefectureCode" : 13,
      "stationName" : "永田町",
      "transfer" : "有楽町線・南北線・銀座線・丸ノ内線・半蔵門線"
    },
    {
      "address" : "東京都千代田区麹町1-6先",
      "imageName" : "Z05",
      "latitude" : 35.685377000000003,
      "longitude" : 139.741657,
      "postalCode" : "〒102-0083",
      "prefectureCode" : 13,
      "stationName" : "半蔵門",
      "transfer" : "半蔵門線"
    },
    {
      "address" : "東京都千代田区九段南1-6-1",
      "imageName" : "Z06",
      "latitude" : 35.695481999999998,
      "longitude" : 139.75115400000001,
      "postalCode" : "〒102-0074",
      "prefectureCode" : 13,
      "stationName" : "九段下",
      "transfer" : "東西線・都営新宿線・半蔵門線"
    },
    {
      "address" : "東京都千代田区神田神保町2-2",
      "imageName" : "Z07",
      "latitude" : 35.695931999999999,
      "longitude" : 139.75762700000001,
      "postalCode" : "〒101-0051",
      "prefectureCode" : 13,
      "stationName" : "神保町",
      "transfer" : "都営三田線・都営新宿線・半蔵門線"
    },
    {
      "address" : "東京都千代田区大手町1-6-1",
      "imageName" : "Z08",
      "latitude" : 35.683469000000002,
      "longitude" : 139.762709,
      "postalCode" : "〒100-0004",
      "prefectureCode" : 13,
      "stationName" : "大手町",
      "transfer" : "丸ノ内線・東西線・千代田線・都営三田線・半蔵門線"
    },
    {
      "address" : "東京都中央区日本橋室町1-8-1",
      "imageName" : "Z09",
      "latitude" : 35.687156000000002,
      "longitude" : 139.773571,
      "postalCode" : "〒103-0022",
      "prefectureCode" : 13,
      "stationName" : "三越前",
      "transfer" : "銀座線・JR総武快速線・半蔵門線"
    },
    {
      "address" : "東京都中央区日本橋蛎殻町2-1-1",
      "imageName" : "Z10",
      "latitude" : 35.682989999999997,
      "longitude" : 139.78515300000001,
      "postalCode" : "〒103-0014",
      "prefectureCode" : 13,
      "stationName" : "水天宮前",
      "transfer" : "半蔵門線"
    },
    {
      "address" : "東京都江東区白河1-6-13",
      "imageName" : "Z11",
      "latitude" : 35.682253000000003,
      "longitude" : 139.798778,
      "postalCode" : "〒135-0021",
      "prefectureCode" : 13,
      "stationName" : "清澄白河",
      "transfer" : "都営大江戸線・半蔵門線"
    },
    {
      "address" : "東京都江東区猿江2-9-10",
      "imageName" : "Z12",
      "latitude" : 35.688761999999997,
      "longitude" : 139.81573499999999,
      "postalCode" : "〒135-0003",
      "prefectureCode" : 13,
      "stationName" : "住吉",
      "transfer" : "都営新宿線・半蔵門線"
    },
    {
      "address" : "東京都墨田区江東橋3-14-6先",
      "imageName" : "Z13",
      "latitude" : 35.697149000000003,
      "longitude" : 139.81378599999999,
      "postalCode" : "〒130-0022",
      "prefectureCode" : 13,
      "stationName" : "錦糸町",
      "transfer" : "JR総武線・半蔵門線"
    },
    {
      "address" : "東京都墨田区押上1-1-65",
      "imageName" : "Z14",
      "latitude" : 35.710332000000001,
      "longitude" : 139.81329700000001,
      "postalCode" : "〒131-0045",
      "prefectureCode" : 13,
      "stationName" : "押上<スカイツリー前>",
      "transfer" : "都営浅草線・東武スカイツリーライン・京成押上線・半蔵門線"
    }
  ],
  [
    {
      "address" : "東京都品川区上大崎4-2-1",
      "imageName" : "N01",
      "latitude" : 35.633471999999998,
      "longitude" : 139.715586,
      "postalCode" : "〒141-0021",
      "prefectureCode" : 13,
      "stationName" : "目黒",
      "transfer" : "都営三田線・東急目黒線・JR山手線・南北線"
    },
    {
      "address" : "東京都港区白金台4-5-10",
      "imageName" : "N02",
      "latitude" : 35.638416999999997,
      "longitude" : 139.72677400000001,
      "postalCode" : "〒108-0071",
      "prefectureCode" : 13,
      "stationName" : "白金台",
      "transfer" : "都営三田線・南北線"
    },
    {
      "address" : "東京都港区高輪1-3-20先",
      "imageName" : "N03",
      "latitude" : 35.642854,
      "longitude" : 139.73407599999999,
      "postalCode" : "〒108-0074",
      "prefectureCode" : 13,
      "stationName" : "白金高輪",
      "transfer" : "都営三田線・南北線"
    },
    {
      "address" : "東京都港区麻布十番4-4-9先",
      "imageName" : "N04",
      "latitude" : 35.656399,
      "longitude" : 139.736602,
      "postalCode" : "〒106-0045",
      "prefectureCode" : 13,
      "stationName" : "麻布十番",
      "transfer" : "都営大江戸線・南北線"
    },
    {
      "address" : "東京都港区六本木1-4-1",
      "imageName" : "N05",
      "latitude" : 35.665463000000003,
      "longitude" : 139.738991,
      "postalCode" : "〒106-0032",
      "prefectureCode" : 13,
      "stationName" : "六本木一丁目",
      "transfer" : "南北線"
    },
    {
      "address" : "東京都千代田区永田町2-11-1",
      "imageName" : "N06",
      "latitude" : 35.673830000000002,
      "longitude" : 139.74174099999999,
      "postalCode" : "〒100-0014",
      "prefectureCode" : 13,
      "stationName" : "溜池山王",
      "transfer" : "銀座線・丸ノ内線・千代田線・南北線"
    },
    {
      "address" : "東京都千代田区永田町1-11-28先",
      "imageName" : "N07",
      "latitude" : 35.677795000000003,
      "longitude" : 139.741713,
      "postalCode" : "〒100-0014",
      "prefectureCode" : 13,
      "stationName" : "永田町",
      "transfer" : "有楽町線・半蔵門線・南北線"
    },
    {
      "address" : "東京都新宿区四谷1-3",
      "imageName" : "N08",
      "latitude" : 35.686152999999997,
      "longitude" : 139.73021800000001,
      "postalCode" : "〒160-0004",
      "prefectureCode" : 13,
      "stationName" : "四ツ谷",
      "transfer" : "丸ノ内線・JR線・南北線"
    },
    {
      "address" : "東京都新宿区市谷田町1丁目先",
      "imageName" : "N09",
      "latitude" : 35.691628000000001,
      "longitude" : 139.73611,
      "postalCode" : "〒162-0043",
      "prefectureCode" : 13,
      "stationName" : "市ケ谷",
      "transfer" : "有楽町線・都営新宿線・JR線・南北線"
    },
    {
      "address" : "東京都新宿区神楽坂1-13",
      "imageName" : "N10",
      "latitude" : 35.701124999999998,
      "longitude" : 139.7431,
      "postalCode" : "〒162-0825",
      "prefectureCode" : 13,
      "stationName" : "飯田橋",
      "transfer" : "東西線・有楽町線・都営大江戸線・JR線・南北線"
    },
    {
      "address" : "東京都文京区春日1-2-3",
      "imageName" : "N11",
      "latitude" : 35.708486000000001,
      "longitude" : 139.751822,
      "postalCode" : "〒112-0003",
      "prefectureCode" : 13,
      "stationName" : "後楽園",
      "transfer" : "丸ノ内線・都営三田線・都営大江戸線・南北線"
    },
    {
      "address" : "東京都文京区向丘1-19-2",
      "imageName" : "N12",
      "latitude" : 35.717818000000001,
      "longitude" : 139.758015,
      "postalCode" : "〒113-0023",
      "prefectureCode" : 13,
      "stationName" : "東大前",
      "transfer" : "南北線"
    },
    {
      "address" : "東京都文京区向丘2-37-1",
      "imageName" : "N13",
      "latitude" : 35.72504,
      "longitude" : 139.75365400000001,
      "postalCode" : "〒113-0023",
      "prefectureCode" : 13,
      "stationName" : "本駒込",
      "transfer" : "南北線"
    },
    {
      "address" : "東京都豊島区駒込2-1-40",
      "imageName" : "N14",
      "latitude" : 35.736567000000001,
      "longitude" : 139.74700999999999,
      "postalCode" : "〒170-0003",
      "prefectureCode" : 13,
      "stationName" : "駒込",
      "transfer" : "JR山手線・南北線"
    },
    {
      "address" : "東京都北区西ケ原2-3-8",
      "imageName" : "N15",
      "latitude" : 35.745925999999997,
      "longitude" : 139.74223799999999,
      "postalCode" : "〒114-0024",
      "prefectureCode" : 13,
      "stationName" : "西ケ原",
      "transfer" : "南北線"
    },
    {
      "address" : "東京都北区王子1-10-18",
      "imageName" : "N16",
      "latitude" : 35.752285999999998,
      "longitude" : 139.738238,
      "postalCode" : "〒114-0002",
      "prefectureCode" : 13,
      "stationName" : "王子",
      "transfer" : "JR京浜東北線・都電荒川線・南北線"
    },
    {
      "address" : "東京都北区王子5-2-11",
      "imageName" : "N17",
      "latitude" : 35.765424000000003,
      "longitude" : 139.735626,
      "postalCode" : "〒114-0002",
      "prefectureCode" : 13,
      "stationName" : "王子神谷",
      "transfer" : "南北線"
    },
    {
      "address" : "東京都北区志茂2-1-18",
      "imageName" : "N18",
      "latitude" : 35.778421999999999,
      "longitude" : 139.732237,
      "postalCode" : "〒115-0042",
      "prefectureCode" : 13,
      "stationName" : "志茂",
      "transfer" : "南北線"
    },
    {
      "address" : "東京都北区赤羽1-52-8",
      "imageName" : "N19",
      "latitude" : 35.783504000000001,
      "longitude" : 139.72182100000001,
      "postalCode" : "〒115-0045",
      "prefectureCode" : 13,
      "stationName" : "赤羽岩淵",
      "transfer" : "埼玉高速鉄道線・南北線"
    }
  ],
  [
    {
      "address" : "埼玉県和光市本町4-6",
      "imageName" : "F01",
      "latitude" : 35.788404999999997,
      "longitude" : 139.612246,
      "postalCode" : "〒351-0114",
      "prefectureCode" : 11,
      "stationName" : "和光市",
      "transfer" : "有楽町線・東武東上線・副都心線"
    },
    {
      "address" : "東京都板橋区成増2-11-3",
      "imageName" : "F02",
      "latitude" : 35.776696999999999,
      "longitude" : 139.63119,
      "postalCode" : "〒175-0094",
      "prefectureCode" : 13,
      "stationName" : "地下鉄成増",
      "transfer" : "有楽町線・副都心線"
    },
    {
      "address" : "東京都練馬区北町8-37-16",
      "imageName" : "F03",
      "latitude" : 35.769976,
      "longitude" : 139.644023,
      "postalCode" : "〒179-0081",
      "prefectureCode" : 13,
      "stationName" : "地下鉄赤塚",
      "transfer" : "有楽町線・副都心線"
    },
    {
      "address" : "東京都練馬区早宮2-17-48",
      "imageName" : "F04",
      "latitude" : 35.757561000000003,
      "longitude" : 139.65432799999999,
      "postalCode" : "〒179-0085",
      "prefectureCode" : 13,
      "stationName" : "平和台",
      "transfer" : "有楽町線・副都心線"
    },
    {
      "address" : "東京都練馬区氷川台3-38-18",
      "imageName" : "F05",
      "latitude" : 35.749561999999997,
      "longitude" : 139.66546600000001,
      "postalCode" : "〒179-0084",
      "prefectureCode" : 13,
      "stationName" : "氷川台",
      "transfer" : "有楽町線・副都心線"
    },
    {
      "address" : "東京都練馬区小竹町2-16-15",
      "imageName" : "F06",
      "latitude" : 35.743341000000001,
      "longitude" : 139.67952099999999,
      "postalCode" : "〒176-0004",
      "prefectureCode" : 13,
      "stationName" : "小竹向原",
      "transfer" : "有楽町線・西武線・副都心線"
    },
    {
      "address" : "東京都豊島区要町3-10-7",
      "imageName" : "F07",
      "latitude" : 35.738092000000002,
      "longitude" : 139.689437,
      "postalCode" : "〒171-0043",
      "prefectureCode" : 13,
      "stationName" : "千川",
      "transfer" : "有楽町線・副都心線"
    },
    {
      "address" : "東京都豊島区要町1-1-10",
      "imageName" : "F08",
      "latitude" : 35.733148,
      "longitude" : 139.69849199999999,
      "postalCode" : "〒171-0043",
      "prefectureCode" : 13,
      "stationName" : "要町",
      "transfer" : "有楽町線・副都心線"
    },
    {
      "address" : "東京都豊島区西池袋3-28-14",
      "imageName" : "F09",
      "latitude" : 35.729503000000001,
      "longitude" : 139.71090000000001,
      "postalCode" : "〒171-0021",
      "prefectureCode" : 13,
      "stationName" : "池袋",
      "transfer" : "丸ノ内線・有楽町線・JR線・東武東上線・西武池袋線・副都心線"
    },
    {
      "address" : "東京都豊島区雑司が谷2-6-1",
      "imageName" : "F10",
      "latitude" : 35.720243000000004,
      "longitude" : 139.714844,
      "postalCode" : "〒171-0032",
      "prefectureCode" : 13,
      "stationName" : "雑司が谷",
      "transfer" : "都電荒川線・副都心線"
    },
    {
      "address" : "東京都新宿区戸山3-18-2",
      "imageName" : "F11",
      "latitude" : 35.707814999999997,
      "longitude" : 139.709147,
      "postalCode" : "〒162-0052",
      "prefectureCode" : 13,
      "stationName" : "西早稲田",
      "transfer" : "副都心線"
    },
    {
      "address" : "東京都新宿区新宿7-27-11",
      "imageName" : "F12",
      "latitude" : 35.697929999999999,
      "longitude" : 139.70740900000001,
      "postalCode" : "〒〒160-0022",
      "prefectureCode" : 13,
      "stationName" : "東新宿",
      "transfer" : "都営大江戸線・副都心線"
    },
    {
      "address" : "東京都新宿区新宿5-18-22",
      "imageName" : "F13",
      "latitude" : 35.690798000000001,
      "longitude" : 139.706354,
      "postalCode" : "〒160-0022",
      "prefectureCode" : 13,
      "stationName" : "新宿三丁目",
      "transfer" : "丸ノ内線・都営新宿線・副都心線"
    },
    {
      "address" : "東京都渋谷区千駄ヶ谷4-7-11",
      "imageName" : "F14",
      "latitude" : 35.678905,
      "longitude" : 139.705105,
      "postalCode" : "〒151-0051",
      "prefectureCode" : 13,
      "stationName" : "北参道",
      "transfer" : "副都心線"
    },
    {
      "address" : "東京都渋谷区神宮前6-30-4",
      "imageName" : "F15",
      "latitude" : 35.668486000000001,
      "longitude" : 139.705376,
      "postalCode" : "〒150-0001",
      "prefectureCode" : 13,
      "stationName" : "明治神宮前<原宿>",
      "transfer" : "千代田線・JR山手線・副都心線"
    },
    {
      "address" : "東京都渋谷区道玄坂1-1-1",
      "imageName" : "F16",
      "latitude" : 35.658034000000001,
      "longitude" : 139.70163600000001,
      "postalCode" : "〒150-0043",
      "prefectureCode" : 13,
      "stationName" : "渋谷",
      "transfer" : "銀座線・半蔵門線・東急田園都市線・東急東横線・京王井の頭線・JR線・副都心線"
    }
  ]
]